FENGYUN 1C DEB          
1 38727U 99025ETU 17343.83453271  .00000585  00000-0  45318-3 0  9995
2 38727  98.6910 108.6296 0117530  53.7465  97.2322 13.93186022310151
